      2.10          N: GNSS NAV DATA                        RINEX VERSION / TYPE
fic2rin                                 03/02/2022 00:17:35 PGM / RUN BY / DATE
                                                            END OF HEADER
 8 22  3  1  1 59 44.0-5.803629755974e-05-1.477928890381e-12 0.000000000000e+00
    4.500000000000e+01 7.515625000000e+01 4.139815297067e-09-1.499080600804e+00
    3.628432750702e-06 7.352070068009e-03 1.286529004574e-05 5.153732654572e+03
    1.799840000000e+05 5.587935447693e-09 3.042271366471e+00-1.136213541031e-07
    9.649004836353e-01 1.319375000000e+02 1.157371590201e-01-7.758894617676e-09
   -3.214419607765e-11 1.000000000000e+00 2.199000000000e+03 0.000000000000e+00
    2.400000000000e+00 0.000000000000e+00 5.122274160385e-09 4.500000000000e+01
    1.728000000000e+05 4.000000000000e+00
 2 22  3  1  2  0  0.0-6.516412831843e-04-5.684341886081e-13 0.000000000000e+00
    7.900000000000e+01 1.152500000000e+02 4.581976572002e-09 2.676208146263e+00
    6.042420864105e-06 2.062549325638e-02 2.361834049225e-06 5.153703086853e+03
    1.800000000000e+05 3.520399332047e-07-2.250818476264e+00-1.098960638046e-07
    9.652446160955e-01 3.293125000000e+02-1.436648119921e+00-8.058907114400e-09
    1.635782422618e-10 1.000000000000e+00 2.199000000000e+03 0.000000000000e+00
    2.400000000000e+00 0.000000000000e+00-1.769512891769e-08 7.900000000000e+01
    1.728000000000e+05 4.000000000000e+00
 1 22  3  1  2  0  0.0 4.198919050395e-04-9.322320693173e-12 0.000000000000e+00
    4.700000000000e+01 1.027500000000e+02 4.209103897501e-09 2.537368282111e+00
    5.099922418594e-06 1.146097818855e-02 3.138557076454e-06 5.153666767120e+03
    1.800000000000e+05-9.126961231232e-08-2.161264649896e+00-1.601874828339e-07
    9.868982306498e-01 3.314062500000e+02 8.834173378552e-01-7.992118618106e-09
    3.175132257003e-10 1.000000000000e+00 2.199000000000e+03 0.000000000000e+00
    2.400000000000e+00 0.000000000000e+00 5.122274160385e-09 4.700000000000e+01
    1.728000000000e+05 4.000000000000e+00
 3 22  3  1  2  0  0.0-1.429556868970e-04-1.739408617141e-11 0.000000000000e+00
    4.700000000000e+01-1.143437500000e+02 4.439470636057e-09 1.388564415007e+00
   -6.023794412613e-06 3.899464034475e-03 3.438442945480e-06 5.153673748016e+03
    1.800000000000e+05-3.725290298462e-08-1.125852853410e+00-5.587935447693e-09
    9.725386466412e-01 3.202187500000e+02 9.543471593841e-01-8.290702483894e-09
   -4.371610666560e-10 1.000000000000e+00 2.199000000000e+03 0.000000000000e+00
    2.400000000000e+00 0.000000000000e+00 1.862645149231e-09 4.700000000000e+01
    1.728000000000e+05 4.000000000000e+00
 7 22  3  1  2  0  0.0 3.134282305837e-04 2.387423592154e-12 0.000000000000e+00
    2.800000000000e+01 4.137500000000e+01 5.040924260444e-09 1.866639937092e+00
    2.004206180573e-06 1.560267573223e-02 6.664544343948e-06 5.153682470322e+03
    1.800000000000e+05-3.986060619354e-07 9.738487614641e-01-1.769512891769e-07
    9.508323172969e-01 2.480000000000e+02-2.289026022687e+00-8.317846471693e-09
    5.378795476993e-10 1.000000000000e+00 2.199000000000e+03 0.000000000000e+00
    2.400000000000e+00 0.000000000000e+00-1.117587089539e-08 2.800000000000e+01
    1.728000000000e+05 4.000000000000e+00
 5 22  3  1  2  0  0.0-7.307762280107e-05-1.364242052659e-12 0.000000000000e+00
    9.800000000000e+01-1.128750000000e+02 4.757341019492e-09-1.090903450839e+00
   -5.876645445824e-06 5.860257428139e-03 3.788620233536e-06 5.153674150467e+03
    1.800000000000e+05 3.166496753693e-08-1.166446449942e+00 1.341104507446e-07
    9.595159430047e-01 3.037812500000e+02 1.009978188868e+00-8.429636842496e-09
   -4.468043254793e-10 1.000000000000e+00 2.199000000000e+03 0.000000000000e+00
    2.400000000000e+00 0.000000000000e+00-1.117587089539e-08 9.800000000000e+01
    1.728000000000e+05 4.000000000000e+00
 6 22  3  1  2  0  0.0 2.164975740016e-04 1.227817847393e-11 0.000000000000e+00
    9.100000000000e+01 9.075000000000e+01 4.258748822554e-09 2.845844210503e+00
    4.939734935760e-06 2.689434331842e-03 3.049150109291e-06 5.153679897308e+03
    1.800000000000e+05 9.499490261078e-08-2.169536256431e+00 1.341104507446e-07
    9.862733364147e-01 3.342500000000e+02-9.372565077413e-01-8.183198005901e-09
    2.917978688382e-10 1.000000000000e+00 2.199000000000e+03 0.000000000000e+00
    3.400000000000e+00 0.000000000000e+00 3.725290298462e-09 9.100000000000e+01
    1.728000000000e+05 4.000000000000e+00
 4 22  3  1  2  0  0.0-1.866589300334e-04 2.501110429876e-12 0.000000000000e+00
    3.100000000000e+01-6.468750000000e+01 4.083027217330e-09-1.984821267956e+00
   -3.429129719734e-06 1.729994779453e-03 1.247040927410e-05 5.153654348373e+03
    1.800000000000e+05-2.421438694000e-08-4.464779749712e-02 2.607703208923e-08
    9.616684455565e-01 1.406875000000e+02-3.036399628770e+00-7.661390556240e-09
    2.560820954186e-10 1.000000000000e+00 2.199000000000e+03 0.000000000000e+00
    2.400000000000e+00 0.000000000000e+00-4.190951585770e-09 7.990000000000e+02
    1.728000000000e+05 4.000000000000e+00
10 22  3  1  2  0  0.0-3.336728550494e-04-1.091393642128e-11 0.000000000000e+00
    4.400000000000e+01-1.243125000000e+02 4.514830917973e-09 4.986604267055e-01
   -6.318092346191e-06 7.541846949607e-03 3.630295395851e-06 5.153681167603e+03
    1.800000000000e+05-5.587935447693e-09-1.128637199058e+00 1.285225152969e-07
    9.723604617562e-01 3.137500000000e+02-2.506984250414e+00-8.427851053825e-09
   -5.243075537999e-10 1.000000000000e+00 2.199000000000e+03 0.000000000000e+00
    2.400000000000e+00 0.000000000000e+00 2.328306436539e-09 4.400000000000e+01
    1.728000000000e+05 4.000000000000e+00
13 22  3  1  2  0  0.0 2.693766728044e-04 6.252776074689e-12 0.000000000000e+00
    2.400000000000e+01-2.818750000000e+01 3.896948037813e-09-2.043596684782e+00
   -1.475214958191e-06 5.801090039313e-03 1.284293830395e-05 5.153679502487e+03
    1.800000000000e+05 9.313225746155e-09 5.529822147289e-02-1.583248376846e-07
    9.691092477472e-01 1.369375000000e+02 9.522904765036e-01-7.510312834675e-09
    3.300137463972e-10 1.000000000000e+00 2.199000000000e+03 0.000000000000e+00
    2.400000000000e+00 0.000000000000e+00-1.117587089539e-08 2.400000000000e+01
    1.728000000000e+05 4.000000000000e+00
 9 22  3  1  2  0  0.0-3.520450554788e-04 1.818989403546e-12 0.000000000000e+00
    5.800000000000e+01-6.684375000000e+01 4.288392914492e-09-1.119180488440e+00
   -3.509223461151e-06 2.209956292063e-03 1.242011785507e-05 5.153622152328e+03
    1.800000000000e+05 0.000000000000e+00-9.768811755935e-02 2.607703208923e-08
    9.546622763272e-01 1.379687500000e+02 1.879618492786e+00-7.847112578022e-09
    1.853648640478e-10 1.000000000000e+00 2.199000000000e+03 0.000000000000e+00
    2.400000000000e+00 0.000000000000e+00 1.396983861923e-09 5.800000000000e+01
    1.728000000000e+05 4.000000000000e+00
31 22  3  1  2  0  0.0-1.668850891292e-04-1.705302565824e-12 0.000000000000e+00
    2.200000000000e+01 3.515625000000e+01 4.939134306198e-09 1.412027861108e+00
    2.000480890274e-06 1.044789317530e-02 6.435438990593e-06 5.153686664581e+03
    1.800000000000e+05-8.568167686462e-08 9.920017330140e-01 7.450580596924e-08
    9.550413988620e-01 2.544375000000e+02 3.793808803136e-01-8.248200713524e-09
    3.778728827795e-10 1.000000000000e+00 2.199000000000e+03 0.000000000000e+00
    2.400000000000e+00 0.000000000000e+00-1.350417733192e-08 2.200000000000e+01
    1.728000000000e+05 4.000000000000e+00
22 22  3  1  2  0  0.0 2.206363715231e-04 5.798028723802e-12 0.000000000000e+00
    2.500000000000e+01-5.103125000000e+01 4.080527113190e-09-1.695253630347e+00
   -2.633780241013e-06 1.298876106739e-02 1.291744410992e-05 5.153666542053e+03
    1.800000000000e+05 3.501772880554e-07 3.654041668360e-03 1.620501279831e-07
    9.618147417532e-01 1.294375000000e+02-1.870493509083e+00-7.577815646438e-09
    2.810831368123e-10 1.000000000000e+00 2.199000000000e+03 0.000000000000e+00
    2.400000000000e+00 0.000000000000e+00-9.778887033463e-09 2.500000000000e+01
    1.728000000000e+05 4.000000000000e+00
29 22  3  1  2  0  0.0-4.859315231442e-04-4.547473508865e-12 0.000000000000e+00
    5.500000000000e+01 1.070937500000e+02 3.807658604264e-09-1.393036325897e+00
    5.465000867844e-06 1.872809603810e-03 1.221336424351e-05 5.153751848221e+03
    1.800000000000e+05-2.048909664154e-08 3.137351389290e+00-7.450580596924e-09
    9.820744996649e-01 1.604375000000e+02 2.243519445464e+00-7.609959842516e-09
   -1.071473202588e-12 1.000000000000e+00 2.199000000000e+03 0.000000000000e+00
    2.400000000000e+00 0.000000000000e+00-1.024454832077e-08 5.500000000000e+01
    1.728000000000e+05 4.000000000000e+00
19 22  3  1  2  0  0.0 1.250891946256e-04 5.002220859751e-12 0.000000000000e+00
    3.300000000000e+01 8.040625000000e+01 3.907662769839e-09 8.333426672671e-01
    4.148110747337e-06 9.001219645143e-03 1.153722405434e-05 5.153695131302e+03
    1.800000000000e+05-5.960464477539e-08-3.114028744665e+00-1.620501279831e-07
    9.788217159448e-01 1.698125000000e+02 2.013436519050e+00-7.765680614625e-09
    9.286101089098e-12 1.000000000000e+00 2.199000000000e+03 0.000000000000e+00
    2.400000000000e+00 0.000000000000e+00-1.583248376846e-08 3.300000000000e+01
    1.728000000000e+05 4.000000000000e+00
12 22  3  1  2  0  0.0-1.780730672181e-04-5.684341886081e-12 0.000000000000e+00
    8.900000000000e+01-2.937500000000e+01 4.506616290086e-09 1.221154969137e+00
   -1.633539795876e-06 8.712597307749e-03 8.067116141319e-06 5.153588085175e+03
    1.800000000000e+05-1.415610313416e-07 2.087086576768e+00-5.587935447693e-09
    9.698931216787e-01 2.287187500000e+02 1.250634717042e+00-8.066050269084e-09
   -5.428797559780e-10 1.000000000000e+00 2.199000000000e+03 0.000000000000e+00
    2.400000000000e+00 0.000000000000e+00-1.257285475731e-08 8.900000000000e+01
    1.728000000000e+05 4.000000000000e+00
